LEMUR-2-STARLIGHT       
1 66783U 25276DY  26198.47151373  .00003664  00000+0  30349-3 0  9999
2 66783  97.5234 268.0758 0014733  40.4697 319.7619 14.99372034 34731
LEMUR-2-TARTIFLETTE     
1 66784U 25276DZ  26197.73583064  .00003442  00000+0  28561-3 0  9991
2 66784  97.5233 267.3730 0013920  51.1069 309.1394 14.99350642 34624
LEMUR-2-VUKASIN         
1 66785U 25276EA  26198.63852405  .00002198  00000+0  17875-3 0  9993
2 66785  97.5213 268.6079 0002662  47.2173 312.9274 15.00558237 34718
LEMUR-2-HOTSPUR-TOM     
1 66786U 25276EB  26198.59797479  .00002767  00000+0  23113-3 0  9992
2 66786  97.5214 268.1791 0013711  40.2029 320.0206 14.99254921 34687
LEMUR-2-MYRA            
1 66787U 25276EC  26198.00353480  .00003308  00000+0  26550-3 0  9999
2 66787  97.5220 267.9128 0018672  48.8003 311.4828 15.00601403 34681
LEMUR-2 FIKRETDENGIZ    
1 67363U 26004A   26197.98275149  .00001639  00000+0  18210-3 0  9990
2 67363  97.8028 196.0882 0010076  50.7070 309.5038 14.88523570 27716
TWILIGHT-1 OBJECT B     
1 67364U 26004B   26198.42429465  .00000846  00000+0  98536-4 0  9992
2 67364  97.8076 196.5227 0009580  39.4014 320.7898 14.87797460 27784
LEMUR-2-MARIO-SOUSA     
1 67365U 26004C   26198.43284725  .00001948  00000+0  21412-3 0  9994
2 67365  97.8002 196.5266 0009683  50.9541 309.2536 14.88737833 27795
LEMUR-2-SONNENBLUME     
1 67367U 26004E   26198.43611552  .00001287  00000+0  14447-3 0  9994
2 67367  97.8002 196.5014 0009276  51.9713 308.2340 14.88459429 27792
LEMUR-2-WOBLER          
1 67368U 26004F   26198.22339323  .00001894  00000+0  20858-3 0  9992
2 67368  97.8052 196.4452 0009361  44.1369 316.0594 14.88706069 27769
LEMUR-2-GRAM-E-SUE      
1 67370U 26004H   26197.94679961  .00001204  00000+0  13514-3 0  9994
2 67370  97.7987 196.0361 0008489  56.2455 303.9569 14.88593718 27721
LEMUR-2-KATIE           
1 67387U 26004AA  26197.96895245  .00002041  00000+0  21596-3 0  9998
2 67387  97.8044 196.6155 0003340  29.9962 330.1447 14.90260082 27749
LEMUR-2-HCS-BAZUS       
1 67388U 26004AB  26198.70587216  .00001476  00000+0  15773-3 0  9999
2 67388  97.8039 197.3215 0002801  27.7706 332.3661 14.90270767 27857
